NORAD_CAT_ID,OBJECT_NAME,OBJECT_TYPE,EPOCH,MEAN_MOTION,ECCENTRICITY,INCLINATION,RA_OF_ASC_NODE,ARG_OF_PERICENTER,MEAN_ANOMALY,BSTAR,MEAN_MOTION_DOT,MEAN_MOTION_DDOT,TLE_LINE0,TLE_LINE1,TLE_LINE2,SEMIMAJOR_AXIS,PERIOD,APOGEE,PERIGEE,DECAYED
55396.0,STARLINK-5283,PAYLOAD,2023-02-17 13:34:59,15.69913902,0.0003293,69.9979,42.2393,274.521,85.561,-7.2907e-06,-1.089e-05,0.0,0 STARLINK-5283,1 55396U 23014F   23048.56596537 -.00001089  00000-0 -72907-5 0  9991,2 55396  69.9979  42.2393 0003293 274.5210  85.5610 15.69913902  3799,6737.28,91.725,361.364,356.927,0.0
55396.0,STARLINK-5283,PAYLOAD,2023-02-17 18:10:14,15.69928972,0.0003441,69.9979,41.7025,272.1514,87.9287,4.6498e-05,5.383e-05,0.0,0 STARLINK-5283,1 55396U 23014F   23048.75711100  .00005383  00000-0  46498-4 0  9991,2 55396  69.9979  41.7025 0003441 272.1514  87.9287 15.69928972  2889,6737.237,91.724,361.42,356.784,0.0
55396.0,STARLINK-5283,PAYLOAD,2023-02-17 21:13:44,15.69922756,0.0003291,69.9981,41.3438,276.12,83.962,4.2844e-05,4.942e-05,0.0,0 STARLINK-5283,1 55396U 23014F   23048.88454759  .00004942  00000-0  42844-4 0  9990,2 55396  69.9981  41.3438 0003291 276.1200  83.9620 15.69922756  3843,6737.255,91.724,361.337,356.903,0.0
55396.0,STARLINK-5283,PAYLOAD,2023-02-18 01:49:00,15.69924214,0.0003317,69.9982,40.8059,271.3245,88.757,4.7301e-05,5.478e-05,0.0,0 STARLINK-5283,1 55396U 23014F   23049.07569825  .00005478  00000-0  47301-4 0  9991,2 55396  69.9982  40.8059 0003317 271.3245  88.7570 15.69924214  2939,6737.251,91.724,361.351,356.881,0.0
55396.0,STARLINK-5283,PAYLOAD,2023-02-18 10:59:30,15.69951291,0.0003316,69.9983,39.7307,265.8249,94.2568,0.00016639,0.00019864,0.0,0 STARLINK-5283,1 55396U 23014F   23049.45799402  .00019864  00000-0  16639-3 0  9992,2 55396  69.9983  39.7307 0003316 265.8249  94.2568 15.69951291  2994,6737.173,91.723,361.272,356.804,0.0
55396.0,STARLINK-5283,PAYLOAD,2023-02-18 14:03:01,15.6994559,0.0003089,69.9982,39.3727,272.7832,87.301,0.00017891,0.00021373,0.0,0 STARLINK-5283,1 55396U 23014F   23049.58542844  .00021373  00000-0  17891-3 0  9991,2 55396  69.9982  39.3727 0003089 272.7832  87.3010 15.69945590  3954,6737.19,91.723,361.136,356.974,0.0
55396.0,STARLINK-5283,PAYLOAD,2023-02-18 18:38:16,15.69926132,0.0003454,69.9983,38.8346,267.9334,92.1466,0.00031087,0.00037337,0.0,0 STARLINK-5283,1 55396U 23014F   23049.77657821  .00037337  00000-0  31087-3 0  9994,2 55396  69.9983  38.8346 0003454 267.9334  92.1466 15.69926132  3045,6737.245,91.724,361.437,356.783,0.0
55396.0,STARLINK-5283,PAYLOAD,2023-02-19 09:55:47,15.6993054,0.0003541,69.9982,37.0435,272.9262,87.1528,0.00010848,0.00012855,0.0,0 STARLINK-5283,1 55396U 23014F   23050.41374420  .00012855  00000-0  10848-3 0  9998,2 55396  69.9982  37.0435 0003541 272.9262  87.1528 15.69930540  3149,6737.233,91.724,361.483,356.712,0.0
55396.0,STARLINK-5283,PAYLOAD,2023-02-19 14:31:03,15.69920992,0.0003389,69.9983,36.5057,273.9116,86.1692,3.8045e-05,4.364e-05,0.0,0 STARLINK-5283,1 55396U 23014F   23050.60489609  .00004364  00000-0  38045-4 0  9991,2 55396  69.9983  36.5057 0003389 273.9116  86.1692 15.69920992  4112,6737.26,91.724,361.408,356.842,0.0
55396.0,STARLINK-5283,PAYLOAD,2023-02-20 02:45:03,15.6998208,0.0003701,69.9984,35.0717,267.5664,92.5108,0.00048047,0.00058104,0.0,0 STARLINK-5283,1 55396U 23014F   23051.11462120  .00058104  00000-0  48047-3 0  9990,2 55396  69.9984  35.0717 0003701 267.5664  92.5108 15.69982080  3258,6737.085,91.721,361.444,356.457,0.0
55396.0,STARLINK-5283,PAYLOAD,2023-02-20 10:23:48,15.69987672,0.0003698,69.9985,34.1758,269.5523,90.5249,0.00034533,0.00041629,0.0,0 STARLINK-5283,1 55396U 23014F   23051.43319487  .00041629  00000-0  34533-3 0  9991,2 55396  69.9985  34.1758 0003698 269.5523  90.5249 15.69987672  3307,6737.069,91.72,361.426,356.443,0.0
55396.0,STARLINK-5283,PAYLOAD,2023-02-20 13:27:18,15.69910962,0.0003209,69.9986,33.8174,287.4913,72.5932,-9.901e-05,-0.00012094,0.0,0 STARLINK-5283,1 55396U 23014F   23051.56063481 -.00012094  00000-0 -99010-4 0  9993,2 55396  69.9986  33.8174 0003209 287.4913  72.5932 15.69910962  4269,6737.289,91.725,361.316,356.992,0.0
55396.0,STARLINK-5283,PAYLOAD,2023-02-20 18:02:33,15.69913663,0.0003764,69.9986,33.28,265.2029,94.8736,0.00043411,0.00052292,0.0,0 STARLINK-5283,1 55396U 23014F   23051.75178206  .00052292  00000-0  43411-3 0  9991,2 55396  69.9986  33.2800 0003764 265.2029  94.8736 15.69913663  3356,6737.281,91.725,361.682,356.61,0.0
55396.0,STARLINK-5283,PAYLOAD,2023-02-21 01:41:19,15.6991515,0.000371,69.9986,32.3842,262.9553,97.122,0.0004722,0.00056934,0.0,0 STARLINK-5283,1 55396U 23014F   23052.07037022  .00056934  00000-0  47220-3 0  9996,2 55396  69.9986  32.3842 0003710 262.9553  97.1220 15.69915150  3402,6737.277,91.725,361.641,356.642,0.0
55396.0,STARLINK-5283,PAYLOAD,2023-02-21 09:20:06,15.69912039,0.0003612,69.9988,31.4889,265.3814,94.6969,0.00019424,0.00023197,0.0,0 STARLINK-5283,1 55396U 23014F   23052.38895909  .00023197  00000-0  19424-3 0  9996,2 55396  69.9988  31.4889 0003612 265.3814  94.6969 15.69912039  3453,6737.286,91.725,361.584,356.717,0.0
55396.0,STARLINK-5283,PAYLOAD,2023-02-21 13:55:21,15.69905992,0.0003589,69.9988,30.9507,266.4161,93.6624,0.00014133,0.00016803,0.0,0 STARLINK-5283,1 55396U 23014F   23052.58011335  .00016803  00000-0  14133-3 0  9999,2 55396  69.9988  30.9507 0003589 266.4161  93.6624 15.69905992  4429,6737.303,91.725,361.586,356.75,0.0
55396.0,STARLINK-5283,PAYLOAD,2023-02-21 21:34:07,15.69935121,0.0003607,69.999,30.0551,268.3268,91.7514,0.00052665,0.00063626,0.0,0 STARLINK-5283,1 55396U 23014F   23052.89869677  .00063626  00000-0  52665-3 0  9990,2 55396  69.9990  30.0551 0003607 268.3268  91.7514 15.69935121  4471,6737.22,91.724,361.515,356.655,0.0
55396.0,STARLINK-5283,PAYLOAD,2023-02-22 09:48:09,15.69892535,0.0002523,69.999,28.6222,327.4431,32.6609,0.00031032,0.00037213,0.0,0 STARLINK-5283,1 55396U 23014F   23053.40844310  .00037213  00000-0  31032-3 0  9993,2 55396  69.9990  28.6222 0002523 327.4431  32.6609 15.69892535  3619,6737.341,91.726,360.906,357.507,0.0
55396.0,STARLINK-5283,PAYLOAD,2023-02-22 15:55:09,15.69915576,0.000361,69.9991,27.905,271.7838,88.2944,0.00052987,0.00063967,0.0,0 STARLINK-5283,1 55396U 23014F   23053.66330136  .00063967  00000-0  52987-3 0  9994,2 55396  69.9991  27.9050 0003610 271.7838  88.2944 15.69915576  3655,6737.276,91.725,361.573,356.708,0.0
55396.0,STARLINK-5283,PAYLOAD,2023-02-23 04:09:09,15.69953003,0.0003555,69.999,26.4726,272.7952,87.2837,0.00033705,0.00040561,0.0,0 STARLINK-5283,1 55396U 23014F   23054.17303182  .00040561  00000-0  33705-3 0  9994,2 55396  69.9990  26.4726 0003555 272.7952  87.2837 15.69953003  3730,6737.168,91.722,361.429,356.638,0.0
55396.0,STARLINK-5283,PAYLOAD,2023-02-23 10:16:10,15.69940344,0.0002921,69.9992,25.7556,278.6801,81.4064,0.0001057,0.00012523,0.0,0 STARLINK-5283,1 55396U 23014F   23054.42790030  .00012523  00000-0  10570-3 0  9996,2 55396  69.9992  25.7556 0002921 278.6801  81.4064 15.69940344  3775,6737.205,91.723,361.038,357.102,0.0
55396.0,STARLINK-5283,PAYLOAD,2023-02-23 20:58:26,15.69942645,0.0003054,69.9995,24.5021,280.2989,79.7863,0.00015863,0.00018918,0.0,0 STARLINK-5283,1 55396U 23014F   23054.87391513  .00018918  00000-0  15863-3 0  9992,2 55396  69.9995  24.5021 0003054 280.2989  79.7863 15.69942645  4781,6737.198,91.723,361.121,357.006,0.0
55396.0,STARLINK-5283,PAYLOAD,2023-02-24 04:37:11,15.69939822,0.0003856,69.9992,23.6058,272.4677,87.6077,0.00028421,0.00034125,0.0,0 STARLINK-5283,1 55396U 23014F   23055.19249897  .00034125  00000-0  28421-3 0  9997,2 55396  69.9992  23.6058 0003856 272.4677  87.6077 15.69939822  3894,6737.206,91.723,361.669,356.473,0.0
55396.0,STARLINK-5283,PAYLOAD,2023-02-24 06:08:57,15.69946914,0.0003502,69.9991,23.4264,268.6357,91.4437,0.00065128,0.00078914,0.0,0 STARLINK-5283,1 55396U 23014F   23055.25621661  .00078914  00000-0  65128-3 0  9996,2 55396  69.9991  23.4264 0003502 268.6357  91.4437 15.69946914  3905,6737.186,91.723,361.41,356.692,0.0
55396.0,STARLINK-5283,PAYLOAD,2023-02-24 21:26:28,15.69950424,0.0002543,69.9996,21.6355,268.0669,92.0235,0.00039481,0.00047576,0.0,0 STARLINK-5283,1 55396U 23014F   23055.89338625  .00047576  00000-0  39481-3 0  9994,2 55396  69.9996  21.6355 0002543 268.0669  92.0235 15.69950424  4944,6737.176,91.723,360.754,357.328,0.0
55396.0,STARLINK-5283,PAYLOAD,2023-02-25 00:29:58,15.69931686,0.0003166,69.9981,21.2759,270.5816,89.5017,0.00012034,0.00014286,0.0,0 STARLINK-5283,1 55396U 23014F   23056.02081906  .00014286  00000-0  12034-3 0  9994,2 55396  69.9981  21.2759 0003166 270.5816  89.5017 15.69931686  4023,6737.229,91.724,361.227,356.961,0.0
55396.0,STARLINK-5283,PAYLOAD,2023-02-25 06:36:59,15.69934273,0.0003197,69.9996,20.5601,269.8449,90.2381,9.3399e-05,0.00011037,0.0,0 STARLINK-5283,1 55396U 23014F   23056.27568487  .00011037  00000-0  93399-4 0  9990,2 55396  69.9996  20.5601 0003197 269.8449  90.2381 15.69934273  5001,6737.222,91.724,361.241,356.933,0.0
55396.0,STARLINK-5283,PAYLOAD,2023-02-26 04:01:30,15.69947774,0.0003332,69.9992,18.0529,262.4207,97.661,0.00014662,0.00017471,0.0,0 STARLINK-5283,1 55396U 23014F   23057.16771537  .00017471  00000-0  14662-3 0  9994,2 55396  69.9992  18.0529 0003332 262.4207  97.6610 15.69947774  4207,6737.183,91.723,361.293,356.804,0.0
55396.0,STARLINK-5283,PAYLOAD,2023-02-26 08:36:45,15.69942109,0.000341,69.9981,17.513,269.3134,90.7671,0.00014199,0.00016907,0.0,0 STARLINK-5283,1 55396U 23014F   23057.35886450  .00016907  00000-0  14199-3 0  9994,2 55396  69.9981  17.5130 0003410 269.3134  90.7671 15.69942109  4230,6737.2,91.723,361.362,356.767,0.0
55396.0,STARLINK-5283,PAYLOAD,2023-02-26 20:50:47,15.69933301,0.0002696,69.9998,16.0831,258.6243,101.465,9.8523e-05,0.00011654,0.0,0 STARLINK-5283,1 55396U 23014F   23057.86860108  .00011654  00000-0  98523-4 0  9990,2 55396  69.9998  16.0831 0002696 258.6243 101.4650 15.69933301  5251,6737.225,91.724,360.906,357.273,0.0
